ONEWEB-0588             
1 55153U 23004P   25018.43703410 -.00000259  00000+0 -69069-3 0  9996
2 55153  87.9083  77.9104 0002334  92.5573 267.5826 13.18685742101853
ONEWEB-0598             
1 55154U 23004Q   25018.53853385 -.00000448  00000+0 -13001-2 0  9999
2 55154  87.8907 123.6647 0002286 117.7737 242.3623 13.11415377 98441
ONEWEB-0599             
1 55155U 23004R   25018.25361502  .00000137  00000+0  32052-3 0  9995
2 55155  87.9102 108.4561 0001827 112.1401 247.9925 13.17652472 99670
ONEWEB-0614             
1 55156U 23004S   25018.53344240 -.00000319  00000+0 -93547-3 0  9997
2 55156  87.8907 123.6726 0001626  92.8560 267.2754 13.11417000 98384
ONEWEB-0616             
1 55157U 23004T   25018.52359084  .00000031  00000+0  45508-4 0  9993
2 55157  87.9094 108.4005 0001410 144.8648 215.2576 13.17647011 99929
ONEWEB-0617             
1 55158U 23004U   25018.52159062  .00000186  00000+0  48785-3 0  9998
2 55158  87.8903 123.6618 0001909  95.8191 264.3155 13.11414178 98408
ONEWEB-0618             
1 55159U 23004V   25018.49424455  .00000530  00000+0  20802-3 0  9999
2 55159  86.9074  16.9139 0011420 313.0758  46.9477 14.27559266106051
ONEWEB-0619             
1 55160U 23004W   25018.47972359  .00000089  00000+0  19591-3 0  9992
2 55160  87.9097 108.3867 0001338  92.6184 267.5101 13.17647472 99818
